{
  "type": "FeatureCollection",
  "features": [
    {
      "type": "Feature",
      "properties": {
        "norad_id": 29740,
        "name": "FENGYUN 1C DEB",
        "group": "fengyun-1c-debris",
        "lat": 51.16542217912595,
        "lon": -179.24915438883303,
        "alt_km": 2383.9423428093532,
        "timestamp": "2025-12-04T03:47:54.814291+00:00",
        "meta_object_name": "FENGYUN 1C DEB",
        "meta_object_id": "1999-025AE",
        "meta_epoch": "2025-12-03T19:30:19.211040",
        "meta_mean_motion": 12.08324593,
        "meta_eccentricity": 0.0975959,
        "meta_inclination": 99.0432,
        "meta_ra_of_asc_node": 191.9129,
        "meta_arg_of_pericenter": 216.5451,
        "meta_mean_anomaly": 136.5046,
        "meta_ephemeris_type": 0,
        "meta_classification_type": "U",
        "meta_norad_cat_id": 29740,
        "meta_element_set_no": 999,
        "meta_rev_at_epoch": 82827,
        "meta_bstar": -0.00013498,
        "meta_mean_motion_dot": -8.1e-07,
        "meta_mean_motion_ddot": 0,
        "tle_line1": "1 29740U 99025AE  25337.81272235 -.00000081  00000+0 -13498-3 0  9995",
        "tle_line2": "2 29740  99.0432 191.9129 0975959 216.5451 136.5046 12.08324593828270"
      },
      "geometry": {
        "type": "Point",
        "coordinates": [
          -179.24915438883303,
          51.16542217912595
        ]
      }
    },
    {
      "type": "Feature",
      "properties": {
        "norad_id": 29741,
        "name": "FENGYUN 1C DEB",
        "group": "fengyun-1c-debris",
        "lat": 12.227931518049264,
        "lon": 36.93679453976511,
        "alt_km": 1547.4137392135463,
        "timestamp": "2025-12-04T03:47:54.814302+00:00",
        "meta_object_name": "FENGYUN 1C DEB",
        "meta_object_id": "1999-025AF",
        "meta_epoch": "2025-12-03T15:16:15.951072",
        "meta_mean_motion": 12.00886762,
        "meta_eccentricity": 0.102335,
        "meta_inclination": 99.1761,
        "meta_ra_of_asc_node": 214.5558,
        "meta_arg_of_pericenter": 81.7836,
        "meta_mean_anomaly": 338.4998,
        "meta_ephemeris_type": 0,
        "meta_classification_type": "U",
        "meta_norad_cat_id": 29741,
        "meta_element_set_no": 999,
        "meta_rev_at_epoch": 52074,
        "meta_bstar": 0.0061428,
        "meta_mean_motion_dot": 2.376e-05,
        "meta_mean_motion_ddot": 0,
        "tle_line1": "1 29741U 99025AF  25337.63629573  .00002376  00000+0  61428-2 0  9999",
        "tle_line2": "2 29741  99.1761 214.5558 1023350  81.7836 338.4998 12.00886762520747"
      },
      "geometry": {
        "type": "Point",
        "coordinates": [
          36.93679453976511,
          12.227931518049264
        ]
      }
    },
    {
      "type": "Feature",
      "properties": {
        "norad_id": 29748,
        "name": "FENGYUN 1C DEB",
        "group": "fengyun-1c-debris",
        "lat": 67.56800779985895,
        "lon": -113.50182927914385,
        "alt_km": 1229.331665946027,
        "timestamp": "2025-12-04T03:47:54.814312+00:00",
        "meta_object_name": "FENGYUN 1C DEB",
        "meta_object_id": "1999-025AN",
        "meta_epoch": "2025-12-03T07:16:41.439360",
        "meta_mean_motion": 11.89330675,
        "meta_eccentricity": 0.0823623,
        "meta_inclination": 99.8072,
        "meta_ra_of_asc_node": 270.6311,
        "meta_arg_of_pericenter": 25.6268,
        "meta_mean_anomaly": 338.3319,
        "meta_ephemeris_type": 0,
        "meta_classification_type": "U",
        "meta_norad_cat_id": 29748,
        "meta_element_set_no": 999,
        "meta_rev_at_epoch": 78621,
        "meta_bstar": 0.20401,
        "meta_mean_motion_dot": 0.00037448,
        "meta_mean_motion_ddot": 0,
        "tle_line1": "1 29748U 99025AN  25337.30325740  .00037448  00000+0  20401+0 0  9990",
        "tle_line2": "2 29748  99.8072 270.6311 0823623  25.6268 338.3319 11.89330675786217"
      },
      "geometry": {
        "type": "Point",
        "coordinates": [
          -113.50182927914385,
          67.56800779985895
        ]
      }
    },
    {
      "type": "Feature",
      "properties": {
        "norad_id": 29750,
        "name": "FENGYUN 1C DEB",
        "group": "fengyun-1c-debris",
        "lat": -57.24728679930435,
        "lon": 21.37412220556499,
        "alt_km": 844.3828560987158,
        "timestamp": "2025-12-04T03:47:54.814323+00:00",
        "meta_object_name": "FENGYUN 1C DEB",
        "meta_object_id": "1999-025AQ",
        "meta_epoch": "2025-12-03T01:04:14.736864",
        "meta_mean_motion": 14.0962991,
        "meta_eccentricity": 0.00353658,
        "meta_inclination": 98.7558,
        "meta_ra_of_asc_node": 6.4297,
        "meta_arg_of_pericenter": 329.5013,
        "meta_mean_anomaly": 84.1205,
        "meta_ephemeris_type": 0,
        "meta_classification_type": "U",
        "meta_norad_cat_id": 29750,
        "meta_element_set_no": 999,
        "meta_rev_at_epoch": 96937,
        "meta_bstar": 0.00032204332,
        "meta_mean_motion_dot": 5.24e-06,
        "meta_mean_motion_ddot": 0,
        "tle_line1": "1 29750U 99025AQ  25337.04461501  .00000524  00000+0  32204-3 0  9993",
        "tle_line2": "2 29750  98.7558   6.4297 0035365 329.5013  84.1205 14.09629910969375"
      },
      "geometry": {
        "type": "Point",
        "coordinates": [
          21.37412220556499,
          -57.24728679930435
        ]
      }
    },
    {
      "type": "Feature",
      "properties": {
        "norad_id": 29751,
        "name": "FENGYUN 1C DEB",
        "group": "fengyun-1c-debris",
        "lat": 6.633309337691888,
        "lon": 5.276680553709415,
        "alt_km": 874.4376610361969,
        "timestamp": "2025-12-04T03:47:54.814333+00:00",
        "meta_object_name": "FENGYUN 1C DEB",
        "meta_object_id": "1999-025AR",
        "meta_epoch": "2025-12-03T13:18:05.603328",
        "meta_mean_motion": 14.23617538,
        "meta_eccentricity": 0.0089525,
        "meta_inclination": 98.5425,
        "meta_ra_of_asc_node": 5.6916,
        "meta_arg_of_pericenter": 165.785,
        "meta_mean_anomaly": 347.4684,
        "meta_ephemeris_type": 0,
        "meta_classification_type": "U",
        "meta_norad_cat_id": 29751,
        "meta_element_set_no": 999,
        "meta_rev_at_epoch": 97942,
        "meta_bstar": 0.00024274,
        "meta_mean_motion_dot": 5.34e-06,
        "meta_mean_motion_ddot": 0,
        "tle_line1": "1 29751U 99025AR  25337.55423152  .00000534  00000+0  24274-3 0  9999",
        "tle_line2": "2 29751  98.5425   5.6916 0089525 165.7850 347.4684 14.23617538979424"
      },
      "geometry": {
        "type": "Point",
        "coordinates": [
          5.276680553709415,
          6.633309337691888
        ]
      }
    },
    {
      "type": "Feature",
      "properties": {
        "norad_id": 29754,
        "name": "FENGYUN 1C DEB",
        "group": "fengyun-1c-debris",
        "lat": -76.71604696122454,
        "lon": 122.37198778048226,
        "alt_km": 811.0643943801997,
        "timestamp": "2025-12-04T03:47:54.814343+00:00",
        "meta_object_name": "FENGYUN 1C DEB",
        "meta_object_id": "1999-025AU",
        "meta_epoch": "2025-12-03T13:15:35.256960",
        "meta_mean_motion": 14.19087876,
        "meta_eccentricity": 0.0035555,
        "meta_inclination": 98.885,
        "meta_ra_of_asc_node": 80.2693,
        "meta_arg_of_pericenter": 265.854,
        "meta_mean_anomaly": 160.9291,
        "meta_ephemeris_type": 0,
        "meta_classification_type": "U",
        "meta_norad_cat_id": 29754,
        "meta_element_set_no": 999,
        "meta_rev_at_epoch": 97224,
        "meta_bstar": 0.0014389,
        "meta_mean_motion_dot": 2.982e-05,
        "meta_mean_motion_ddot": 0,
        "tle_line1": "1 29754U 99025AU  25337.55249140  .00002982  00000+0  14389-2 0  9999",
        "tle_line2": "2 29754  98.8850  80.2693 0035555 265.8540 160.9291 14.19087876972241"
      },
      "geometry": {
        "type": "Point",
        "coordinates": [
          122.37198778048226,
          -76.71604696122454
        ]
      }
    },
    {
      "type": "Feature",
      "properties": {
        "norad_id": 29758,
        "name": "FENGYUN 1C DEB",
        "group": "fengyun-1c-debris",
        "lat": -69.59909423365148,
        "lon": 118.35301589177344,
        "alt_km": 753.1601883724288,
        "timestamp": "2025-12-04T03:47:54.814353+00:00",
        "meta_object_name": "FENGYUN 1C DEB",
        "meta_object_id": "1999-025AY",
        "meta_epoch": "2025-12-03T13:43:16.487040",
        "meta_mean_motion": 14.40738498,
        "meta_eccentricity": 0.0020312,
        "meta_inclination": 98.856,
        "meta_ra_of_asc_node": 92.9613,
        "meta_arg_of_pericenter": 336.1425,
        "meta_mean_anomaly": 151.9822,
        "meta_ephemeris_type": 0,
        "meta_classification_type": "U",
        "meta_norad_cat_id": 29758,
        "meta_element_set_no": 999,
        "meta_rev_at_epoch": 97539,
        "meta_bstar": 0.0037154,
        "meta_mean_motion_dot": 0.0001188,
        "meta_mean_motion_ddot": 0,
        "tle_line1": "1 29758U 99025AY  25337.57171860  .00011880  00000+0  37154-2 0  9990",
        "tle_line2": "2 29758  98.8560  92.9613 0020312 336.1425 151.9822 14.40738498975390"
      },
      "geometry": {
        "type": "Point",
        "coordinates": [
          118.35301589177344,
          -69.59909423365148
        ]
      }
    }
  ]
}